[{"OBJECT_NAME":"STARLINK-32809","OBJECT_ID":"2025-019W","EPOCH":"2026-03-09T02:18:04.401792","MEAN_MOTION":15.27604303,"ECCENTRICITY":8.499e-5,"INCLINATION":42.9999,"RA_OF_ASC_NODE":92.0262,"ARG_OF_PERICENTER":278.1182,"MEAN_ANOMALY":81.9574,"EPHEMERIS_TYPE":0,"CLASSIFICATION_TYPE":"U","NORAD_CAT_ID":62849,"ELEMENT_SET_NO":999,"REV_AT_EPOCH":6216,"BSTAR":0.0010160125,"MEAN_MOTION_DOT":0.00027823,"MEAN_MOTION_DDOT":0},{"OBJECT_NAME":"ARCSTONE","OBJECT_ID":"2025-135N","EPOCH":"2026-03-09T21:21:29.017152","MEAN_MOTION":15.28638458,"ECCENTRICITY":0.00041199,"INCLINATION":97.4495,"RA_OF_ASC_NODE":185.9194,"ARG_OF_PERICENTER":166.7863,"MEAN_ANOMALY":193.3485,"EPHEMERIS_TYPE":0,"CLASSIFICATION_TYPE":"U","NORAD_CAT_ID":64540,"ELEMENT_SET_NO":999,"REV_AT_EPOCH":3984,"BSTAR":0.00094899777,"MEAN_MOTION_DOT":0.00026427,"MEAN_MOTION_DDOT":0}]
